[Satellite]
VERSION=1.1
NAME=CZ-4B R/B
NICKNAME=CZ-4B R/B
TLE1=1 25732U 99025C   19317.16095618 -.00000027  00000-0  89630-5 0  9992
TLE2=2 25732  98.9671 339.1458 0038327 109.2626 292.6040 14.17669734 61179
STATUS=0
